NORAD_CAT_ID,OBJECT_NAME,OBJECT_TYPE,EPOCH,MEAN_MOTION,ECCENTRICITY,INCLINATION,RA_OF_ASC_NODE,ARG_OF_PERICENTER,MEAN_ANOMALY,BSTAR,MEAN_MOTION_DOT,MEAN_MOTION_DDOT,TLE_LINE0,TLE_LINE1,TLE_LINE2,SEMIMAJOR_AXIS,PERIOD,APOGEE,PERIGEE,DECAYED
54002.0,STARLINK-5109,PAYLOAD,2024-03-16 14:11:52,15.08835687,0.0001479,53.2171,209.9671,105.5125,254.6031,6.6054e-05,7.63e-06,0.0,0 STARLINK-5109,1 54002U 22125AQ  24076.59157533  .00000763  00000-0  66054-4 0  9991,2 54002  53.2171 209.9671 0001479 105.5125 254.6031 15.08835687 80444,6917.894,95.438,540.782,538.735,0.0
54002.0,STARLINK-5109,PAYLOAD,2024-03-16 15:47:15,15.08834186,0.0001407,53.2173,209.6727,95.5436,264.5716,6.9608e-05,8.2e-06,0.0,0 STARLINK-5109,1 54002U 22125AQ  24076.65781597  .00000820  00000-0  69608-4 0  9993,2 54002  53.2173 209.6727 0001407  95.5436 264.5716 15.08834186 80453,6917.898,95.438,540.737,538.79,0.0
54002.0,STARLINK-5109,PAYLOAD,2024-03-17 12:27:16,15.0883415,0.0001376,53.2172,205.806,98.8097,261.3051,4.7563e-05,4.69e-06,0.0,0 STARLINK-5109,1 54002U 22125AQ  24077.51893911  .00000469  00000-0  47563-4 0  9998,2 54002  53.2172 205.8060 0001376  98.8097 261.3051 15.08834150 80632,6917.898,95.438,540.715,538.811,0.0
54002.0,STARLINK-5109,PAYLOAD,2024-03-17 14:02:39,15.08833829,0.0001368,53.2173,205.5086,98.8552,261.2595,4.3845e-05,4.1e-06,0.0,0 STARLINK-5109,1 54002U 22125AQ  24077.58517962  .00000410  00000-0  43845-4 0  9999,2 54002  53.2173 205.5086 0001368  98.8552 261.2595 15.08833829 80594,6917.899,95.438,540.711,538.818,0.0
54002.0,STARLINK-5109,PAYLOAD,2024-03-17 15:38:02,15.0883365,0.0001347,53.2173,205.2115,96.9202,263.1943,4.3285e-05,4.01e-06,0.0,0 STARLINK-5109,1 54002U 22125AQ  24077.65142001  .00000401  00000-0  43285-4 0  9993,2 54002  53.2173 205.2115 0001347  96.9202 263.1943 15.08833650 80604,6917.9,95.438,540.697,538.833,0.0
54002.0,STARLINK-5109,PAYLOAD,2024-03-18 12:18:03,15.08838163,0.0001324,53.2174,201.3463,95.6974,264.4169,5.4367e-05,5.77e-06,0.0,0 STARLINK-5109,1 54002U 22125AQ  24078.51253935  .00000577  00000-0  54367-4 0  9995,2 54002  53.2174 201.3463 0001324  95.6974 264.4169 15.08838163 80737,6917.886,95.438,540.667,538.835,0.0
54002.0,STARLINK-5109,PAYLOAD,2024-03-18 17:04:12,15.08841559,0.0001377,53.2176,200.4539,98.2302,261.8847,8.2922e-05,1.032e-05,0.0,0 STARLINK-5109,1 54002U 22125AQ  24078.71125644  .00001032  00000-0  82922-4 0  9997,2 54002  53.2176 200.4539 0001377  98.2302 261.8847 15.08841559 80811,6917.876,95.437,540.693,538.788,0.0
54002.0,STARLINK-5109,PAYLOAD,2024-03-19 12:08:50,15.08840041,0.0001472,53.2183,196.8874,101.1227,258.9931,0.00010258,1.345e-05,0.0,0 STARLINK-5109,1 54002U 22125AQ  24079.50613810  .00001345  00000-0  10258-3 0  9991,2 54002  53.2183 196.8874 0001472 101.1227 258.9931 15.08840041 80888,6917.88,95.438,540.764,538.727,0.0
54002.0,STARLINK-5109,PAYLOAD,2024-03-20 07:13:28,15.08840987,0.0001502,53.2169,193.3184,88.3115,271.8049,5.1526e-05,5.32e-06,0.0,0 STARLINK-5109,1 54002U 22125AQ  24080.30102001  .00000532  00000-0  51526-4 0  9997,2 54002  53.2169 193.3184 0001502  88.3115 271.8049 15.08840987 81057,6917.877,95.437,540.781,538.703,0.0
54002.0,STARLINK-5109,PAYLOAD,2024-03-20 13:35:01,15.08837099,0.0001526,53.2176,192.1285,80.9883,279.1281,2.1331e-05,5.1e-07,0.0,0 STARLINK-5109,1 54002U 22125AQ  24080.56598522  .00000051  00000-0  21331-4 0  9999,2 54002  53.2176 192.1285 0001526  80.9883 279.1281 15.08837099 81048,6917.889,95.438,540.81,538.699,0.0
54002.0,STARLINK-5109,PAYLOAD,2024-03-20 15:10:24,15.08836623,0.0001507,53.2175,191.8304,91.977,268.1395,2.6328e-05,1.31e-06,0.0,0 STARLINK-5109,1 54002U 22125AQ  24080.63222491  .00000131  00000-0  26328-4 0  9996,2 54002  53.2175 191.8304 0001507  91.9770 268.1395 15.08836623 81104,6917.891,95.438,540.798,538.713,0.0
54002.0,STARLINK-5109,PAYLOAD,2024-03-21 00:42:42,15.08844136,0.000155,53.2176,190.0447,104.3401,255.7763,7.8934e-05,9.69e-06,0.0,0 STARLINK-5109,1 54002U 22125AQ  24081.02965835  .00000969  00000-0  78934-4 0  9995,2 54002  53.2176 190.0447 0001550 104.3401 255.7763 15.08844136 81167,6917.868,95.437,540.805,538.66,0.0
54002.0,STARLINK-5109,PAYLOAD,2024-03-21 13:25:47,15.08842773,0.0001412,53.2167,187.6679,88.4536,271.6618,2.8052e-05,1.59e-06,0.0,0 STARLINK-5109,1 54002U 22125AQ  24081.55958132  .00000159  00000-0  28052-4 0  9992,2 54002  53.2167 187.6679 0001412  88.4536 271.6618 15.08842773 81198,6917.872,95.437,540.714,538.76,0.0
54002.0,STARLINK-5109,PAYLOAD,2024-03-22 13:16:34,15.08846047,0.000151,53.2171,183.2057,98.8701,261.2463,0.00022786,3.341e-05,0.0,0 STARLINK-5109,1 54002U 22125AQ  24082.55317721  .00003341  00000-0  22786-3 0  9999,2 54002  53.2171 183.2057 0001510  98.8701 261.2463 15.08846047 81341,6917.862,95.437,540.772,538.682,0.0
54002.0,STARLINK-5109,PAYLOAD,2024-03-23 11:31:59,15.08815467,0.0001417,53.2174,179.0409,104.5233,255.5916,0.00022901,3.356e-05,0.0,0 STARLINK-5109,1 54002U 22125AQ  24083.48055275  .00003356  00000-0  22901-3 0  9990,2 54002  53.2174 179.0409 0001417 104.5233 255.5916 15.08815467 81531,6917.955,95.439,540.801,538.84,0.0
54002.0,STARLINK-5109,PAYLOAD,2024-03-23 14:42:45,15.08834612,0.0001438,53.2177,178.4464,98.3973,261.7182,-8.178e-05,-1.589e-05,0.0,0 STARLINK-5109,1 54002U 22125AQ  24083.61302687 -.00001589  00000-0 -81780-4 0  9996,2 54002  53.2177 178.4464 0001438  98.3973 261.7182 15.08834612 81551,6917.897,95.438,540.757,538.767,0.0
54002.0,STARLINK-5109,PAYLOAD,2024-03-24 12:58:09,15.08835871,0.000152,53.2176,174.2816,110.209,249.9066,-3.6705e-05,-8.72e-06,0.0,0 STARLINK-5109,1 54002U 22125AQ  24084.54038739 -.00000872  00000-0 -36705-4 0  9994,2 54002  53.2176 174.2816 0001520 110.2090 249.9066 15.08835871 81648,6917.893,95.438,540.81,538.706,0.0
54002.0,STARLINK-5109,PAYLOAD,2024-03-24 22:30:26,15.08857694,0.0001186,53.2179,172.5002,91.5895,268.5233,0.0002397,3.531e-05,0.0,0 STARLINK-5109,1 54002U 22125AQ  24084.93780707  .00003531  00000-0  23970-3 0  9998,2 54002  53.2179 172.5002 0001186  91.5895 268.5233 15.08857694 81708,6917.826,95.436,540.512,538.871,0.0
54002.0,STARLINK-5109,PAYLOAD,2024-03-25 04:52:00,15.08833998,0.0002671,53.2177,171.3108,83.8785,276.2511,0.00016931,2.407e-05,0.0,0 STARLINK-5109,1 54002U 22125AQ  24085.20278636  .00002407  00000-0  16931-3 0  9992,2 54002  53.2177 171.3108 0002671  83.8785 276.2511 15.08833998 81797,6917.899,95.438,541.612,537.916,0.0
54002.0,STARLINK-5109,PAYLOAD,2024-03-25 12:48:56,15.08827888,0.0001579,53.2174,169.8311,103.1657,256.9512,0.00016898,2.401e-05,0.0,0 STARLINK-5109,1 54002U 22125AQ  24085.53399134  .00002401  00000-0  16898-3 0  9991,2 54002  53.2174 169.8311 0001579 103.1657 256.9512 15.08827888 81799,6917.917,95.438,540.875,538.69,0.0
54002.0,STARLINK-5109,PAYLOAD,2024-03-26 12:39:45,15.08819012,0.0001374,53.217,165.3604,85.8317,274.2832,-1.4773e-05,-5.23e-06,0.0,0 STARLINK-5109,1 54002U 22125AQ  24086.52760817 -.00000523  00000-0 -14773-4 0  9997,2 54002  53.2170 165.3604 0001374  85.8317 274.2832 15.08819012 81993,6917.945,95.439,540.76,538.859,0.0
54002.0,STARLINK-5109,PAYLOAD,2024-03-27 12:30:30,15.08848861,0.0001277,53.2162,160.9063,90.943,269.1708,0.00016392,2.322e-05,0.0,0 STARLINK-5109,1 54002U 22125AQ  24087.52118872  .00002322  00000-0  16392-3 0  9991,2 54002  53.2162 160.9063 0001277  90.9430 269.1708 15.08848861 82146,6917.853,95.437,540.602,538.835,0.0
54002.0,STARLINK-5109,PAYLOAD,2024-03-27 22:02:48,15.08860435,0.0001401,53.2168,159.1195,82.4576,277.6575,0.0001071,1.418e-05,0.0,0 STARLINK-5109,1 54002U 22125AQ  24087.91861981  .00001418  00000-0  10710-3 0  9993,2 54002  53.2168 159.1195 0001401  82.4576 277.6575 15.08860435 82152,6917.818,95.436,540.652,538.714,0.0
54002.0,STARLINK-5109,PAYLOAD,2024-03-28 04:24:23,15.08821436,0.000121,53.2165,157.929,87.7934,272.3197,0.00012722,1.736e-05,0.0,0 STARLINK-5109,1 54002U 22125AQ  24088.18360510  .00001736  00000-0  12722-3 0  9993,2 54002  53.2165 157.9290 0001210  87.7934 272.3197 15.08821436 82245,6917.937,95.439,540.639,538.965,0.0
54002.0,STARLINK-5109,PAYLOAD,2024-03-28 10:45:55,15.08828463,0.0001409,53.216,156.7426,69.6906,290.4237,0.00021926,3.202e-05,0.0,0 STARLINK-5109,1 54002U 22125AQ  24088.44856087  .00003202  00000-0  21926-3 0  9997,2 54002  53.2160 156.7426 0001409  69.6906 290.4237 15.08828463 82283,6917.916,95.438,540.755,538.806,0.0
54002.0,STARLINK-5109,PAYLOAD,2024-03-28 21:53:36,15.08841866,0.0001718,53.2176,154.6591,78.1436,281.9748,0.00027277,4.056e-05,0.0,0 STARLINK-5109,1 54002U 22125AQ  24088.91223147  .00004056  00000-0  27277-3 0  9997,2 54002  53.2176 154.6591 0001718  78.1436 281.9748 15.08841866 82303,6917.875,95.437,540.928,538.551,0.0
54002.0,STARLINK-5109,PAYLOAD,2024-03-29 04:15:09,15.08855714,0.0002088,53.2168,153.469,87.3082,272.8149,-9.351e-06,-4.37e-06,0.0,0 STARLINK-5109,1 54002U 22125AQ  24089.17719053 -.00000437  00000-0 -93510-5 0  9998,2 54002  53.2168 153.4690 0002088  87.3082 272.8149 15.08855714 82391,6917.832,95.437,541.142,538.253,0.0
54002.0,STARLINK-5109,PAYLOAD,2024-03-29 10:36:41,15.08850344,0.0001573,53.2166,152.2795,93.2045,266.9127,-5.1288e-05,-1.104e-05,0.0,0 STARLINK-5109,1 54002U 22125AQ  24089.44215139 -.00001104  00000-0 -51288-4 0  9991,2 54002  53.2166 152.2795 0001573  93.2045 266.9127 15.08850344 82388,6917.849,95.437,540.802,538.626,0.0
54002.0,STARLINK-5109,PAYLOAD,2024-03-29 21:44:23,15.0885161,0.000161,53.2167,150.1976,94.7211,265.3965,-3.4082e-05,-8.31e-06,0.0,0 STARLINK-5109,1 54002U 22125AQ  24089.90582686 -.00000831  00000-0 -34082-4 0  9995,2 54002  53.2167 150.1976 0001610  94.7211 265.3965 15.08851610 82458,6917.845,95.437,540.824,538.596,0.0
54002.0,STARLINK-5109,PAYLOAD,2024-03-30 04:05:56,15.08836171,0.0001507,53.2162,149.0077,100.8037,259.3125,0.00013738,1.899e-05,0.0,0 STARLINK-5109,1 54002U 22125AQ  24090.17078981  .00001899  00000-0  13738-3 0  9991,2 54002  53.2162 149.0077 0001507 100.8037 259.3125 15.08836171 82548,6917.892,95.438,540.8,538.715,0.0
